ORBCOMM FM115           
1 41186U 15081H   25269.42587863  .00001609  00000+0  34716-3 0  9991
2 41186  46.9982 278.0071 0001051 234.3656 125.7134 14.62678231522597
ORBCOMM FM108           
1 41187U 15081J   25269.64342158  .00002068  00000+0  47875-3 0  9992
2 41187  47.0066 347.7840 0001426  48.4519 311.6489 14.58338644521605
ORBCOMM FM117           
1 41188U 15081K   25269.54118463  .00001952  00000+0  45410-3 0  9996
2 41188  47.0020 346.9963 0001904  68.0226 292.0862 14.58333047521639
ORBCOMM FM116           
1 41189U 15081L   25269.86768223  .00001390  00000+0  33328-3 0  9998
2 41189  47.0020  75.2561 0002219 263.9062  96.1571 14.58405951520497
