<?xml version="1.0" encoding="UTF-8"?>
<ndm xmlns:xsi="http://www.w3.org/2001/XMLSchema-instance" xsi:noNamespaceSchemaLocation="https://sanaregistry.org/r/ndmxml_unqualified/ndmxml-2.0.0-master-2.0.xsd">
<omm id="CCSDS_OMM_VERS" version="2.0">
<header><CREATION_DATE/><ORIGINATOR/></header><body><segment><metadata><OBJECT_NAME>ORBCOMM FM115</OBJECT_NAME><OBJECT_ID>2015-081H</OBJECT_ID><CENTER_NAME>EARTH</CENTER_NAME><REF_FRAME>TEME</REF_FRAME><TIME_SYSTEM>UTC</TIME_SYSTEM><MEAN_ELEMENT_THEORY>SGP4</MEAN_ELEMENT_THEORY></metadata><data><meanElements><EPOCH>2025-09-26T10:13:15.913632</EPOCH><MEAN_MOTION>14.62678231</MEAN_MOTION><ECCENTRICITY>.00010518</ECCENTRICITY><INCLINATION>46.9982</INCLINATION><RA_OF_ASC_NODE>278.0071</RA_OF_ASC_NODE><ARG_OF_PERICENTER>234.3656</ARG_OF_PERICENTER><MEAN_ANOMALY>125.7134</MEAN_ANOMALY></meanElements><tleParameters><EPHEMERIS_TYPE>0</EPHEMERIS_TYPE><CLASSIFICATION_TYPE>U</CLASSIFICATION_TYPE><NORAD_CAT_ID>41186</NORAD_CAT_ID><ELEMENT_SET_NO>999</ELEMENT_SET_NO><REV_AT_EPOCH>52259</REV_AT_EPOCH><BSTAR>.34716394E-3</BSTAR><MEAN_MOTION_DOT>.1609E-4</MEAN_MOTION_DOT><MEAN_MOTION_DDOT>0</MEAN_MOTION_DDOT></tleParameters></data></segment></body></omm>
<omm id="CCSDS_OMM_VERS" version="2.0">
<header><CREATION_DATE/><ORIGINATOR/></header><body><segment><metadata><OBJECT_NAME>ORBCOMM FM108</OBJECT_NAME><OBJECT_ID>2015-081J</OBJECT_ID><CENTER_NAME>EARTH</CENTER_NAME><REF_FRAME>TEME</REF_FRAME><TIME_SYSTEM>UTC</TIME_SYSTEM><MEAN_ELEMENT_THEORY>SGP4</MEAN_ELEMENT_THEORY></metadata><data><meanElements><EPOCH>2025-09-26T15:26:31.624512</EPOCH><MEAN_MOTION>14.58338644</MEAN_MOTION><ECCENTRICITY>.00014265</ECCENTRICITY><INCLINATION>47.0066</INCLINATION><RA_OF_ASC_NODE>347.7840</RA_OF_ASC_NODE><ARG_OF_PERICENTER>48.4519</ARG_OF_PERICENTER><MEAN_ANOMALY>311.6489</MEAN_ANOMALY></meanElements><tleParameters><EPHEMERIS_TYPE>0</EPHEMERIS_TYPE><CLASSIFICATION_TYPE>U</CLASSIFICATION_TYPE><NORAD_CAT_ID>41187</NORAD_CAT_ID><ELEMENT_SET_NO>999</ELEMENT_SET_NO><REV_AT_EPOCH>52160</REV_AT_EPOCH><BSTAR>.47874744E-3</BSTAR><MEAN_MOTION_DOT>.2068E-4</MEAN_MOTION_DOT><MEAN_MOTION_DDOT>0</MEAN_MOTION_DDOT></tleParameters></data></segment></body></omm>
<omm id="CCSDS_OMM_VERS" version="2.0">
<header><CREATION_DATE/><ORIGINATOR/></header><body><segment><metadata><OBJECT_NAME>ORBCOMM FM117</OBJECT_NAME><OBJECT_ID>2015-081K</OBJECT_ID><CENTER_NAME>EARTH</CENTER_NAME><REF_FRAME>TEME</REF_FRAME><TIME_SYSTEM>UTC</TIME_SYSTEM><MEAN_ELEMENT_THEORY>SGP4</MEAN_ELEMENT_THEORY></metadata><data><meanElements><EPOCH>2025-09-26T12:59:18.352032</EPOCH><MEAN_MOTION>14.58333047</MEAN_MOTION><ECCENTRICITY>.00019048</ECCENTRICITY><INCLINATION>47.0020</INCLINATION><RA_OF_ASC_NODE>346.9963</RA_OF_ASC_NODE><ARG_OF_PERICENTER>68.0226</ARG_OF_PERICENTER><MEAN_ANOMALY>292.0862</MEAN_ANOMALY></meanElements><tleParameters><EPHEMERIS_TYPE>0</EPHEMERIS_TYPE><CLASSIFICATION_TYPE>U</CLASSIFICATION_TYPE><NORAD_CAT_ID>41188</NORAD_CAT_ID><ELEMENT_SET_NO>999</ELEMENT_SET_NO><REV_AT_EPOCH>52163</REV_AT_EPOCH><BSTAR>.45410277E-3</BSTAR><MEAN_MOTION_DOT>.1952E-4</MEAN_MOTION_DOT><MEAN_MOTION_DDOT>0</MEAN_MOTION_DDOT></tleParameters></data></segment></body></omm>
<omm id="CCSDS_OMM_VERS" version="2.0">
<header><CREATION_DATE/><ORIGINATOR/></header><body><segment><metadata><OBJECT_NAME>ORBCOMM FM116</OBJECT_NAME><OBJECT_ID>2015-081L</OBJECT_ID><CENTER_NAME>EARTH</CENTER_NAME><REF_FRAME>TEME</REF_FRAME><TIME_SYSTEM>UTC</TIME_SYSTEM><MEAN_ELEMENT_THEORY>SGP4</MEAN_ELEMENT_THEORY></metadata><data><meanElements><EPOCH>2025-09-26T20:49:27.744672</EPOCH><MEAN_MOTION>14.58405951</MEAN_MOTION><ECCENTRICITY>.00022194</ECCENTRICITY><INCLINATION>47.0020</INCLINATION><RA_OF_ASC_NODE>75.2561</RA_OF_ASC_NODE><ARG_OF_PERICENTER>263.9062</ARG_OF_PERICENTER><MEAN_ANOMALY>96.1571</MEAN_ANOMALY></meanElements><tleParameters><EPHEMERIS_TYPE>0</EPHEMERIS_TYPE><CLASSIFICATION_TYPE>U</CLASSIFICATION_TYPE><NORAD_CAT_ID>41189</NORAD_CAT_ID><ELEMENT_SET_NO>999</ELEMENT_SET_NO><REV_AT_EPOCH>52049</REV_AT_EPOCH><BSTAR>.33327679E-3</BSTAR><MEAN_MOTION_DOT>.139E-4</MEAN_MOTION_DOT><MEAN_MOTION_DDOT>0</MEAN_MOTION_DDOT></tleParameters></data></segment></body></omm>
</ndm>
